{"type":"FeatureCollection","attribution":"© OpenStreetMap contributors (ODbL)","features":[{"type":"Feature","properties":{"kind":"governorate","name":"محافظة ذي قار","osmId":3244380},"geometry":{"type":"Polygon","coordinates":[[[45.6294,30.9912],[45.6331,30.8688],[45.6514,30.8546],[45.7905,30.8232],[45.9387,30.8216],[46.0559,30.8028],[46.1693,30.7996],[46.2206,30.8059],[46.3725,30.7257],[46.4414,30.5686],[46.4642,30.5337],[46.5902,30.529],[46.9552,30.6293],[46.9992,30.627],[47.1053,30.5869],[47.1079,30.6159],[47.0898,30.6605],[47.0924,30.725],[47.1157,30.7873],[47.126,30.874],[47.139,31.1402],[47.0482,31.1437],[46.9369,31.1259],[46.8505,31.1251],[46.8372,31.1381],[46.8178,31.1813],[46.7712,31.199],[46.7622,31.2378],[46.7712,31.2909],[46.7634,31.3229],[46.7376,31.3395],[46.6936,31.355],[46.6379,31.3826],[46.6159,31.4025],[46.6081,31.4213],[46.6094,31.4522],[46.6159,31.4842],[46.6276,31.5096],[46.6159,31.5471],[46.5991,31.5636],[46.5551,31.5824],[46.5357,31.6111],[46.5253,31.6353],[46.5046,31.6518],[46.4787,31.6639],[46.4554,31.6882],[46.4425,31.8147],[46.4153,31.8499],[46.3881,31.8928],[46.3674,31.9093],[46.3273,31.9301],[46.3221,31.9455],[46.3713,31.9631],[46.3662,31.9974],[46.0724,31.9931],[46.0022,32.0032],[45.9805,32.0036],[45.974,32.0004],[45.8694,31.9901],[45.7682,31.9887],[45.7087,31.9744],[45.7056,31.9246],[45.7276,31.8939],[45.7574,31.8411],[45.7794,31.7839],[45.778,31.6982],[45.78,31.6872],[45.7981,31.6566],[45.803,31.5871],[45.7775,31.566],[45.7885,31.488],[45.7647,31.4193],[45.7336,31.3912],[45.7281,31.3552],[45.7702,31.3599],[45.7666,31.3287],[45.7318,31.2786],[45.7483,31.2551],[45.7684,31.2051],[45.7702,31.1409],[45.697,31.0703],[45.7062,31.0233],[45.6567,31.0123],[45.6294,30.9912]]]}},{"type":"Feature","properties":{"kind":"district","name":"الجبايش","osmId":11044685},"geometry":{"type":"Polygon","coordinates":[[[46.6658,30.7509],[46.6693,30.7409],[46.7008,30.7092],[46.7079,30.6852],[46.7327,30.6546],[46.7609,30.6364],[46.8358,30.5965],[46.9552,30.6293],[46.9992,30.627],[47.1053,30.5869],[47.1079,30.6159],[47.0898,30.6605],[47.0924,30.725],[47.1157,30.7873],[47.126,30.874],[47.139,31.1402],[47.0482,31.1437],[46.9369,31.1259],[46.8505,31.1251],[46.8544,31.1156],[46.8522,31.1063],[46.8144,31.0442],[46.7958,31.0276],[46.771,31.0189],[46.7565,31.0175],[46.7734,30.9745],[46.7588,30.9171],[46.7391,30.8719],[46.7087,30.8155],[46.6658,30.7509]]]}},{"type":"Feature","properties":{"kind":"district","name":"الإصلاح","osmId":11044688},"geometry":{"type":"Polygon","coordinates":[[[46.4958,31.2024],[46.5011,31.1987],[46.4993,31.1875],[46.507,31.1765],[46.5088,31.166],[46.5051,31.1556],[46.513,31.1447],[46.5465,31.0672],[46.5581,31.0608],[46.5666,31.0627],[46.5721,31.055],[46.6244,31.0285],[46.6448,31.0233],[46.6664,31.0252],[46.7105,31.0226],[46.7329,31.0172],[46.7565,31.0175],[46.771,31.0189],[46.7958,31.0276],[46.8144,31.0442],[46.8546,31.1122],[46.8505,31.1251],[46.8372,31.1381],[46.8178,31.1813],[46.7712,31.199],[46.7622,31.2378],[46.7712,31.2909],[46.7634,31.3229],[46.7376,31.3395],[46.6936,31.355],[46.6379,31.3826],[46.6159,31.4025],[46.6081,31.4213],[46.6094,31.4522],[46.6159,31.4842],[46.6276,31.5096],[46.6159,31.5471],[46.5991,31.5636],[46.5551,31.5824],[46.574,31.5415],[46.5782,31.5059],[46.5712,31.4865],[46.5701,31.4537],[46.5596,31.4284],[46.5586,31.3878],[46.5505,31.3592],[46.5503,31.3354],[46.5392,31.2938],[46.5025,31.2237],[46.4958,31.2024]]]}},{"type":"Feature","properties":{"kind":"district","name":"الفهود","osmId":11044691},"geometry":{"type":"Polygon","coordinates":[[[46.5197,30.5319],[46.5902,30.529],[46.8358,30.5965],[46.7609,30.6364],[46.7327,30.6546],[46.7079,30.6852],[46.7008,30.7092],[46.6659,30.7449],[46.6658,30.7528],[46.7087,30.8155],[46.7308,30.856],[46.7588,30.9171],[46.7734,30.9745],[46.7565,31.0175],[46.7329,31.0172],[46.7105,31.0226],[46.6664,31.0252],[46.6719,30.9906],[46.6967,30.9293],[46.669,30.8598],[46.6517,30.8414],[46.6158,30.7854],[46.596,30.7615],[46.586,30.7281],[46.5494,30.6363],[46.5197,30.5319]]]}},{"type":"Feature","properties":{"kind":"district","name":"سوق الشيوخ","osmId":11044692},"geometry":{"type":"Polygon","coordinates":[[[46.2282,30.8792],[46.1693,30.7996],[46.2206,30.8059],[46.3725,30.7257],[46.4414,30.5686],[46.4642,30.5337],[46.5197,30.5319],[46.5494,30.6363],[46.586,30.7281],[46.596,30.7615],[46.6158,30.7854],[46.6517,30.8414],[46.669,30.8598],[46.6967,30.9293],[46.6719,30.9906],[46.6664,31.0252],[46.6448,31.0233],[46.6292,31.0293],[46.6135,31.0225],[46.5817,31.0227],[46.518,31.0295],[46.5068,31.0321],[46.4878,31.0522],[46.4759,31.0557],[46.4581,31.0512],[46.4398,31.0391],[46.4214,31.0362],[46.367,31.0501],[46.3673,31.0241],[46.3562,31.0007],[46.3309,31.0048],[46.3139,30.9995],[46.3109,30.9959],[46.3112,30.9793],[46.3037,30.9735],[46.3124,30.9612],[46.2995,30.9409],[46.2619,30.9049],[46.2282,30.8792]]]}},{"type":"Feature","properties":{"kind":"district","name":"سيد دخيل","osmId":11044695},"geometry":{"type":"Polygon","coordinates":[[[46.3194,31.1196],[46.3199,31.1116],[46.3323,31.0899],[46.3527,31.0875],[46.3647,31.0749],[46.367,31.0501],[46.4214,31.0362],[46.4398,31.0391],[46.4581,31.0512],[46.4759,31.0557],[46.4878,31.0522],[46.5068,31.0321],[46.518,31.0295],[46.5817,31.0227],[46.6135,31.0225],[46.6244,31.0285],[46.5721,31.055],[46.5666,31.0627],[46.5581,31.0608],[46.5465,31.0672],[46.513,31.1447],[46.5051,31.1556],[46.5088,31.166],[46.5064,31.1786],[46.4993,31.1875],[46.5011,31.1987],[46.496,31.2019],[46.4977,31.211],[46.5392,31.2938],[46.5446,31.3169],[46.4913,31.3225],[46.4703,31.3394],[46.4559,31.3451],[46.4305,31.3494],[46.4237,31.3586],[46.4253,31.3647],[46.4224,31.3695],[46.4076,31.3758],[46.3906,31.388],[46.3807,31.3522],[46.36,31.3208],[46.3479,31.3111],[46.3463,31.3058],[46.335,31.2482],[46.3377,31.2389],[46.3353,31.191],[46.3266,31.171],[46.3281,31.1441],[46.3194,31.1196]]]}},{"type":"Feature","properties":{"kind":"district","name":"الدواية","osmId":11044697},"geometry":{"type":"Polygon","coordinates":[[[46.2153,31.53],[46.2249,31.527],[46.2341,31.5163],[46.2352,31.4998],[46.2308,31.4831],[46.2231,31.4754],[46.2171,31.4607],[46.234,31.4591],[46.2384,31.4642],[46.2493,31.468],[46.2664,31.4589],[46.2781,31.4568],[46.2819,31.4525],[46.2982,31.4488],[46.3126,31.468],[46.3315,31.4689],[46.3532,31.4443],[46.3954,31.4088],[46.3906,31.388],[46.4076,31.3758],[46.4224,31.3695],[46.4253,31.3647],[46.4237,31.3586],[46.4305,31.3494],[46.4559,31.3451],[46.4703,31.3394],[46.4913,31.3225],[46.5446,31.3169],[46.5518,31.3434],[46.5505,31.3592],[46.5586,31.3878],[46.5596,31.4284],[46.5701,31.4537],[46.5712,31.4865],[46.5782,31.5059],[46.574,31.5415],[46.5551,31.5824],[46.5357,31.6111],[46.5253,31.6353],[46.5046,31.6518],[46.4787,31.6639],[46.4623,31.6811],[46.4486,31.6667],[46.4321,31.6281],[46.411,31.5634],[46.3689,31.573],[46.3512,31.5727],[46.3401,31.5523],[46.3193,31.5592],[46.3064,31.5592],[46.2952,31.5547],[46.2877,31.5442],[46.275,31.5526],[46.268,31.552],[46.2642,31.5472],[46.2522,31.5432],[46.248,31.5344],[46.2153,31.53]]]}},{"type":"Feature","properties":{"kind":"district","name":"الناصرية","osmId":11044703},"geometry":{"type":"Polygon","coordinates":[[[45.6294,30.9912],[45.6331,30.8688],[45.6514,30.8546],[45.7905,30.8232],[45.9387,30.8216],[46.0559,30.8028],[46.1693,30.7996],[46.2282,30.8792],[46.2619,30.9049],[46.2995,30.9409],[46.3124,30.9612],[46.3037,30.9735],[46.3112,30.9793],[46.3109,30.9959],[46.3139,30.9995],[46.3309,31.0048],[46.3562,31.0007],[46.3673,31.0241],[46.3677,31.0598],[46.3647,31.0749],[46.3527,31.0875],[46.3323,31.0899],[46.3199,31.1116],[46.3194,31.1196],[46.3281,31.1441],[46.3266,31.171],[46.3353,31.191],[46.3377,31.2207],[46.3082,31.2349],[46.2944,31.2162],[46.2847,31.2155],[46.2789,31.2206],[46.2739,31.2207],[46.2686,31.2141],[46.2558,31.2172],[46.2457,31.2101],[46.2254,31.2063],[46.2077,31.2064],[46.2051,31.2086],[46.2059,31.2258],[46.1943,31.23],[46.1867,31.2246],[46.1847,31.2125],[46.1568,31.2227],[46.1386,31.2151],[46.1386,31.2274],[46.0529,31.2622],[46.0092,31.284],[45.9276,31.3506],[45.9451,31.391],[45.9591,31.4002],[45.9382,31.4282],[45.9284,31.4229],[45.8991,31.4253],[45.8714,31.3625],[45.7702,31.3599],[45.7666,31.3287],[45.7318,31.2786],[45.7483,31.2551],[45.7684,31.2051],[45.7702,31.1409],[45.697,31.0703],[45.7062,31.0233],[45.6567,31.0123],[45.6294,30.9912]]]}},{"type":"Feature","properties":{"kind":"district","name":"الغراف","osmId":11044705},"geometry":{"type":"Polygon","coordinates":[[[45.9276,31.3506],[46.0092,31.284],[46.0529,31.2622],[46.1386,31.2274],[46.1386,31.2151],[46.1568,31.2227],[46.1847,31.2125],[46.1867,31.2246],[46.1943,31.23],[46.2059,31.2258],[46.2051,31.2086],[46.2077,31.2064],[46.2254,31.2063],[46.2457,31.2101],[46.2558,31.2172],[46.2686,31.2141],[46.2739,31.2207],[46.2789,31.2206],[46.2847,31.2155],[46.2944,31.2162],[46.3082,31.2349],[46.3377,31.2207],[46.3376,31.2433],[46.335,31.2482],[46.3479,31.3111],[46.36,31.3208],[46.3807,31.3522],[46.3932,31.3986],[46.367,31.4132],[46.3564,31.4014],[46.3254,31.4082],[46.3209,31.4059],[46.3026,31.38],[46.2907,31.3712],[46.258,31.3894],[46.2412,31.3809],[46.2284,31.367],[46.2198,31.3849],[46.2118,31.3847],[46.1818,31.3759],[46.1839,31.3617],[46.1633,31.3407],[46.156,31.339],[46.132,31.3414],[46.1221,31.3489],[46.0994,31.3563],[46.0034,31.3484],[45.9276,31.3506]]]}},{"type":"Feature","properties":{"kind":"district","name":"الشطرة","osmId":11044707},"geometry":{"type":"Polygon","coordinates":[[[46.0606,31.3865],[46.0608,31.3777],[46.0701,31.3535],[46.1066,31.3555],[46.132,31.3414],[46.156,31.339],[46.1633,31.3407],[46.1839,31.3617],[46.1818,31.3759],[46.2198,31.3849],[46.2284,31.367],[46.2412,31.3809],[46.258,31.3894],[46.2907,31.3712],[46.3026,31.38],[46.3209,31.4059],[46.3254,31.4082],[46.3564,31.4014],[46.367,31.4132],[46.3932,31.3986],[46.3954,31.4088],[46.3532,31.4443],[46.3315,31.4689],[46.3126,31.468],[46.2982,31.4488],[46.2819,31.4525],[46.2781,31.4568],[46.2664,31.4589],[46.2493,31.468],[46.2384,31.4642],[46.234,31.4591],[46.2171,31.4607],[46.2334,31.4899],[46.2341,31.5163],[46.2249,31.527],[46.2153,31.53],[46.1863,31.5302],[46.1824,31.5287],[46.1862,31.5011],[46.1784,31.4972],[46.1627,31.5091],[46.1588,31.4955],[46.1425,31.4902],[46.139,31.4913],[46.1356,31.4989],[46.125,31.4998],[46.1162,31.4965],[46.1134,31.5055],[46.1056,31.5091],[46.0959,31.5059],[46.0911,31.4971],[46.0921,31.492],[46.1035,31.4814],[46.0938,31.4775],[46.0882,31.4708],[46.0828,31.4612],[46.0811,31.4501],[46.0906,31.4406],[46.0886,31.4219],[46.0656,31.4],[46.0606,31.3865]]]}},{"type":"Feature","properties":{"kind":"district","name":"الرفاعي","osmId":11044709},"geometry":{"type":"Polygon","coordinates":[[[45.7281,31.3552],[45.7702,31.3599],[45.8714,31.3625],[45.8991,31.4253],[45.9284,31.4229],[45.9382,31.4282],[45.9591,31.4002],[45.9451,31.391],[45.9276,31.3506],[46.0034,31.3484],[46.0701,31.3535],[46.0608,31.3777],[46.0606,31.3865],[46.0656,31.4],[46.0886,31.4219],[46.0906,31.4406],[46.0811,31.4501],[46.0828,31.4612],[46.0882,31.4708],[46.0938,31.4775],[46.1035,31.4814],[46.0921,31.492],[46.0911,31.4971],[46.0959,31.5059],[46.1056,31.5091],[46.1134,31.5055],[46.1162,31.4965],[46.125,31.4998],[46.1356,31.4989],[46.139,31.4913],[46.1425,31.4902],[46.1588,31.4955],[46.1627,31.5091],[46.1784,31.4972],[46.1838,31.4987],[46.1862,31.5011],[46.1824,31.5287],[46.1863,31.5302],[46.2153,31.53],[46.248,31.5344],[46.2522,31.5432],[46.2642,31.5472],[46.268,31.552],[46.275,31.5526],[46.2877,31.5442],[46.2952,31.5547],[46.3064,31.5592],[46.3193,31.5592],[46.3401,31.5523],[46.3512,31.5727],[46.3689,31.573],[46.411,31.5634],[46.4321,31.6281],[46.4486,31.6667],[46.4623,31.6811],[46.4554,31.6882],[46.4425,31.8147],[46.4153,31.8499],[46.3881,31.8928],[46.3674,31.9093],[46.3147,31.8645],[46.285,31.8782],[46.2586,31.8814],[46.2314,31.879],[46.212,31.8715],[46.2017,31.8731],[46.1981,31.877],[46.1875,31.8768],[46.1828,31.8676],[46.1756,31.862],[46.145,31.8509],[46.1336,31.8422],[46.1293,31.8233],[46.1187,31.8113],[46.0886,31.8169],[46.0824,31.8146],[46.0803,31.8053],[46.044,31.7687],[45.9931,31.7633],[45.9665,31.7364],[45.7995,31.6371],[45.803,31.5871],[45.7775,31.566],[45.7885,31.488],[45.7647,31.4193],[45.7336,31.3912],[45.7281,31.3552]]]}},{"type":"Feature","properties":{"kind":"district","name":"قلعة سكر","osmId":11044713},"geometry":{"type":"Polygon","coordinates":[[[45.7794,31.7839],[45.78,31.6872],[45.7981,31.6566],[45.7995,31.6371],[45.9665,31.7364],[45.9931,31.7633],[46.044,31.7687],[46.0803,31.8053],[46.0824,31.8146],[46.0886,31.8169],[46.1187,31.8113],[46.1293,31.8233],[46.1336,31.8422],[46.145,31.8509],[46.1756,31.862],[46.1828,31.8676],[46.1875,31.8768],[46.1981,31.877],[46.2017,31.8731],[46.212,31.8715],[46.2314,31.879],[46.2586,31.8814],[46.285,31.8782],[46.3147,31.8645],[46.3674,31.9093],[46.3273,31.9301],[46.3221,31.9455],[46.3713,31.9631],[46.3662,31.9974],[46.0724,31.9931],[46.0688,31.9509],[46.076,31.9248],[46.0778,31.9014],[46.0689,31.8962],[46.0386,31.897],[46.028,31.892],[46.0152,31.8828],[46.0076,31.865],[45.9849,31.8406],[45.9615,31.8223],[45.9521,31.8248],[45.939,31.8364],[45.9315,31.8326],[45.9394,31.8036],[45.9383,31.7923],[45.9078,31.7761],[45.8806,31.7756],[45.87,31.7898],[45.8549,31.7825],[45.7794,31.7839]]]}},{"type":"Feature","properties":{"kind":"district","name":"الفجر","osmId":11044715},"geometry":{"type":"Polygon","coordinates":[[[45.7056,31.9246],[45.7276,31.8939],[45.7574,31.8411],[45.7794,31.7839],[45.8549,31.7825],[45.87,31.7898],[45.8806,31.7756],[45.9078,31.7761],[45.9383,31.7923],[45.9394,31.8036],[45.9315,31.8326],[45.939,31.8364],[45.9521,31.8248],[45.9615,31.8223],[45.9849,31.8406],[46.0076,31.865],[46.0152,31.8828],[46.028,31.892],[46.0386,31.897],[46.0689,31.8962],[46.0778,31.9014],[46.076,31.9248],[46.0688,31.9509],[46.0724,31.9931],[46.0022,32.0032],[45.9805,32.0036],[45.974,32.0004],[45.8694,31.9901],[45.7682,31.9887],[45.7087,31.9744],[45.7056,31.9246]]]}}]}