{"type":"FeatureCollection","attribution":"Boundaries © OpenStreetMap contributors (ODbL 1.0), relations 3244380 and 110446xx-110447xx, fetched 2026-10-10 via polygons.openstreetmap.fr; simplified with topology preserved. Nasr, Batha and Karmat Bani Saad are drawn from their OSM subdistrict boundaries because the 2024 census counts them as separate districts.","features":[{"type":"Feature","properties":{"kind":"governorate","name":"محافظة ذي قار"},"geometry":{"type":"MultiPolygon","coordinates":[[[[45.63307,30.86878],[45.65137,30.85464],[45.79047,30.82321],[45.93872,30.82163],[46.05586,30.80277],[46.16934,30.79963],[46.22059,30.80591],[46.3725,30.72571],[46.44138,30.56864],[46.46423,30.53371],[46.51972,30.5319],[46.59025,30.529],[46.95521,30.62928],[46.99922,30.62705],[47.06134,30.60255],[47.10534,30.58695],[47.10793,30.61591],[47.08981,30.66045],[47.0924,30.725],[47.11569,30.78728],[47.12605,30.87397],[47.13381,30.9983],[47.13899,31.14019],[47.04817,31.14367],[46.93687,31.12595],[46.85922,31.12373],[46.85046,31.12507],[46.83722,31.13813],[46.8178,31.18132],[46.80098,31.18686],[46.77121,31.19904],[46.76215,31.23777],[46.77121,31.29088],[46.76345,31.32294],[46.73756,31.33952],[46.69356,31.355],[46.63791,31.38262],[46.61591,31.40251],[46.60814,31.42129],[46.60944,31.45221],[46.61591,31.48422],[46.62756,31.5096],[46.61591,31.54711],[46.59909,31.56365],[46.55508,31.58239],[46.53567,31.61105],[46.52532,31.6353],[46.50461,31.65183],[46.47872,31.66394],[46.45543,31.68817],[46.45025,31.74982],[46.44249,31.81473],[46.41531,31.84992],[46.38813,31.89278],[46.36742,31.90926],[46.3273,31.93013],[46.32213,31.94551],[46.34154,31.9543],[46.37131,31.96308],[46.36615,31.99743],[46.07245,31.99312],[46.00222,32.00316],[45.98049,32.00356],[45.97401,32.00039],[45.86936,31.99014],[45.76823,31.98865],[45.7087,31.97438],[45.70562,31.92464],[45.72762,31.89388],[45.75738,31.84112],[45.77938,31.78393],[45.77797,31.69821],[45.78001,31.6872],[45.79815,31.65661],[45.80302,31.58714],[45.77754,31.56599],[45.78852,31.48799],[45.76473,31.41929],[45.73362,31.39117],[45.72813,31.35523],[45.77022,31.35992],[45.76656,31.32865],[45.73179,31.27861],[45.74826,31.25514],[45.76839,31.20506],[45.77022,31.14086],[45.73545,31.10639],[45.69701,31.07034],[45.70616,31.02329],[45.65675,31.01231],[45.62941,30.99124],[45.63307,30.86878]]]]}},{"type":"Feature","properties":{"kind":"district","name":"الناصرية","areaKm2":838},"geometry":{"type":"Polygon","coordinates":[[[46.33769,31.2207],[46.33533,31.19101],[46.32661,31.17103],[46.32805,31.14408],[46.31936,31.11961],[46.3199,31.11162],[46.33232,31.08987],[46.34528,31.08895],[46.35614,31.08546],[46.36466,31.07495],[46.3677,31.05982],[46.36697,31.05013],[46.36727,31.02406],[46.35624,31.00073],[46.33094,31.00475],[46.31957,31.00299],[46.31094,30.99585],[46.3112,30.97933],[46.30367,30.9735],[46.31235,30.96116],[46.29948,30.94089],[46.26195,30.90486],[46.22824,30.87919],[46.17052,30.80456],[46.16934,30.79963],[46.09322,30.80174],[46.09549,30.89718],[46.0689,30.90384],[46.06075,30.91373],[46.04472,30.92019],[46.02159,30.93528],[46.05077,30.96171],[46.0695,30.98154],[46.10371,31.04629],[46.11575,31.05811],[46.09405,31.07528],[46.10339,31.08552],[46.11493,31.09423],[46.1389,31.10452],[46.14514,31.10534],[46.16486,31.10137],[46.17385,31.1022],[46.17881,31.10867],[46.17726,31.13459],[46.16493,31.1645],[46.17119,31.17695],[46.18589,31.19147],[46.18857,31.2001],[46.18475,31.21255],[46.1867,31.22462],[46.19434,31.23004],[46.20586,31.22582],[46.20508,31.20861],[46.21043,31.20612],[46.22543,31.20635],[46.24567,31.21007],[46.25575,31.21715],[46.26865,31.21409],[46.27388,31.2207],[46.28474,31.21554],[46.29444,31.21622],[46.30101,31.22257],[46.30465,31.23326],[46.31137,31.23435],[46.32648,31.22528],[46.33769,31.2207]]]}},{"type":"Feature","properties":{"kind":"district","name":"الشطرة","areaKm2":339},"geometry":{"type":"Polygon","coordinates":[[[46.07011,31.35351],[46.09942,31.35633],[46.10657,31.35545],[46.12208,31.34895],[46.13197,31.34138],[46.14122,31.33933],[46.16334,31.34074],[46.1839,31.3617],[46.18175,31.37592],[46.2118,31.38466],[46.21976,31.38493],[46.22843,31.36703],[46.24117,31.38087],[46.25802,31.38942],[46.2737,31.38186],[46.28709,31.3713],[46.29312,31.37224],[46.30265,31.37995],[46.32093,31.40594],[46.32825,31.40878],[46.35644,31.40138],[46.36698,31.41319],[46.39317,31.39861],[46.39542,31.40878],[46.34761,31.45165],[46.33772,31.4595],[46.33633,31.46634],[46.32755,31.46955],[46.31264,31.46805],[46.29824,31.44884],[46.28854,31.45089],[46.27807,31.45679],[46.26635,31.45893],[46.24927,31.46801],[46.23844,31.4642],[46.23397,31.45911],[46.21711,31.46069],[46.22312,31.47537],[46.23084,31.48305],[46.23524,31.49979],[46.23408,31.51626],[46.22488,31.52696],[46.21528,31.53003],[46.18628,31.53021],[46.1824,31.52875],[46.18622,31.50113],[46.17836,31.49717],[46.16905,31.50199],[46.16545,31.50852],[46.15985,31.50643],[46.15884,31.49553],[46.14251,31.49022],[46.13785,31.49769],[46.12504,31.49975],[46.11624,31.49646],[46.11343,31.50546],[46.10556,31.50914],[46.09592,31.50592],[46.09112,31.49714],[46.09213,31.49198],[46.1006,31.48605],[46.10221,31.47926],[46.09384,31.47754],[46.08279,31.46118],[46.08114,31.4501],[46.09062,31.44062],[46.08861,31.42185],[46.08526,31.41636],[46.06563,31.39997],[46.06063,31.38647],[46.06084,31.37773],[46.06786,31.36319],[46.07011,31.35351]]]}},{"type":"Feature","properties":{"kind":"district","name":"سوق الشيوخ","areaKm2":1208},"geometry":{"type":"Polygon","coordinates":[[[46.16934,30.79963],[46.17052,30.80456],[46.22824,30.87919],[46.26195,30.90486],[46.29948,30.94089],[46.31235,30.96116],[46.30367,30.9735],[46.3112,30.97933],[46.31094,30.99585],[46.31957,31.00299],[46.33094,31.00475],[46.35624,31.00073],[46.36727,31.02406],[46.36697,31.05013],[46.38474,31.04631],[46.41487,31.03647],[46.43984,31.03912],[46.4581,31.05121],[46.47587,31.05572],[46.48782,31.05221],[46.50119,31.03621],[46.50677,31.03211],[46.53168,31.02783],[46.56685,31.02501],[46.58172,31.02272],[46.61346,31.0225],[46.62436,31.02852],[46.62916,31.02934],[46.64481,31.02328],[46.66639,31.0252],[46.67191,30.99061],[46.67887,30.97742],[46.6944,30.93911],[46.69668,30.92934],[46.69243,30.92128],[46.66902,30.85977],[46.65168,30.84139],[46.63164,30.85648],[46.60652,30.8986],[46.60006,30.90701],[46.59909,30.91635],[46.58668,30.91637],[46.56383,30.92513],[46.53946,30.91869],[46.53156,30.91411],[46.51856,30.91221],[46.51145,30.90617],[46.48641,30.90321],[46.4875,30.88651],[46.49104,30.88088],[46.48849,30.84748],[46.48591,30.83575],[46.50754,30.81512],[46.51846,30.7707],[46.51623,30.70557],[46.51807,30.68605],[46.51773,30.66524],[46.51155,30.53217],[46.46423,30.53371],[46.44138,30.56864],[46.3725,30.72571],[46.22059,30.80591],[46.16934,30.79963]]]}},{"type":"Feature","properties":{"kind":"district","name":"الرفاعي","areaKm2":1314},"geometry":{"type":"Polygon","coordinates":[[[45.79952,31.63708],[45.96645,31.73645],[45.9931,31.76327],[46.04404,31.76874],[46.06561,31.78788],[46.08029,31.80528],[46.08241,31.81459],[46.08859,31.81687],[46.11874,31.81127],[46.12925,31.82329],[46.13363,31.84225],[46.14502,31.85089],[46.16749,31.86022],[46.17564,31.86203],[46.18279,31.86757],[46.18753,31.87682],[46.19809,31.87695],[46.20167,31.87311],[46.21197,31.87147],[46.23139,31.87899],[46.2586,31.8814],[46.28499,31.87824],[46.31471,31.86454],[46.36742,31.90926],[46.38813,31.89278],[46.41531,31.84992],[46.44249,31.81473],[46.45025,31.74982],[46.45543,31.68817],[46.46227,31.68106],[46.44861,31.66675],[46.43207,31.62811],[46.411,31.56338],[46.40887,31.56221],[46.36892,31.57303],[46.35121,31.57274],[46.34014,31.55226],[46.31929,31.55915],[46.30637,31.55921],[46.29519,31.55465],[46.28768,31.54421],[46.27495,31.55259],[46.25219,31.54321],[46.24805,31.53439],[46.24478,31.5552],[46.23257,31.56527],[46.22702,31.5782],[46.23197,31.60664],[46.22572,31.61825],[46.21343,31.6216],[46.19915,31.63183],[46.18957,31.63628],[46.12853,31.64888],[46.11771,31.64922],[46.11356,31.63856],[46.10476,31.64133],[46.0923,31.65066],[46.08472,31.6535],[46.06491,31.65592],[46.04171,31.64987],[46.01706,31.64078],[45.99849,31.62221],[45.98877,31.61706],[45.96261,31.61394],[45.80153,31.60835],[45.79952,31.63708]]]}},{"type":"Feature","properties":{"kind":"district","name":"الغراف","areaKm2":531},"geometry":{"type":"Polygon","coordinates":[[[45.9276,31.35063],[46.00916,31.28398],[46.05289,31.26221],[46.13859,31.22735],[46.13859,31.21513],[46.15679,31.22266],[46.18475,31.21255],[46.1867,31.22462],[46.19434,31.23004],[46.20586,31.22582],[46.20508,31.20861],[46.21043,31.20612],[46.22543,31.20635],[46.24567,31.21007],[46.25575,31.21715],[46.26865,31.21409],[46.27388,31.2207],[46.28474,31.21554],[46.29444,31.21622],[46.30101,31.22257],[46.30465,31.23326],[46.31137,31.23435],[46.32648,31.22528],[46.33769,31.2207],[46.33765,31.24327],[46.33496,31.24816],[46.33833,31.2734],[46.34786,31.31114],[46.36001,31.32078],[46.37076,31.33939],[46.38073,31.35218],[46.39058,31.38798],[46.39317,31.39861],[46.36698,31.41319],[46.35644,31.40138],[46.32825,31.40878],[46.32093,31.40594],[46.30265,31.37995],[46.29312,31.37224],[46.28709,31.3713],[46.2737,31.38186],[46.25802,31.38942],[46.24117,31.38087],[46.22843,31.36703],[46.21976,31.38493],[46.2118,31.38466],[46.18175,31.37592],[46.1839,31.3617],[46.16334,31.34074],[46.14122,31.33933],[46.13197,31.34138],[46.12208,31.34895],[46.10657,31.35545],[46.09942,31.35633],[46.07011,31.35351],[46.00338,31.34843],[45.9276,31.35063]]]}},{"type":"Feature","properties":{"kind":"district","name":"قلعة سكر","areaKm2":720},"geometry":{"type":"Polygon","coordinates":[[[45.77938,31.78393],[45.77797,31.69821],[45.78001,31.6872],[45.79815,31.65661],[45.79952,31.63708],[45.96645,31.73645],[45.9931,31.76327],[46.04404,31.76874],[46.06561,31.78788],[46.08029,31.80528],[46.08241,31.81459],[46.08859,31.81687],[46.11874,31.81127],[46.12925,31.82329],[46.13363,31.84225],[46.14502,31.85089],[46.16749,31.86022],[46.17564,31.86203],[46.18279,31.86757],[46.18753,31.87682],[46.19809,31.87695],[46.20167,31.87311],[46.21197,31.87147],[46.23139,31.87899],[46.2586,31.8814],[46.28499,31.87824],[46.31471,31.86454],[46.36742,31.90926],[46.3273,31.93013],[46.32213,31.94551],[46.34154,31.9543],[46.37131,31.96308],[46.36615,31.99743],[46.07245,31.99312],[46.07292,31.97546],[46.06884,31.95088],[46.07599,31.92479],[46.07491,31.91519],[46.07783,31.9014],[46.06895,31.89623],[46.04573,31.89532],[46.03548,31.89647],[46.01522,31.8828],[46.00758,31.86496],[45.98932,31.84705],[45.98492,31.84058],[45.97426,31.83467],[45.96153,31.82227],[45.95213,31.82479],[45.939,31.83644],[45.93148,31.83265],[45.93942,31.8036],[45.9383,31.7923],[45.92646,31.78486],[45.90779,31.7761],[45.88058,31.77563],[45.87255,31.78859],[45.85485,31.78254],[45.77938,31.78393]]]}},{"type":"Feature","properties":{"kind":"district","name":"الدواية","areaKm2":694},"geometry":{"type":"Polygon","coordinates":[[[46.21528,31.53003],[46.21831,31.53158],[46.24805,31.53439],[46.25219,31.54321],[46.27495,31.55259],[46.28768,31.54421],[46.29519,31.55465],[46.30637,31.55921],[46.31929,31.55915],[46.34014,31.55226],[46.35121,31.57274],[46.36892,31.57303],[46.40887,31.56221],[46.411,31.56338],[46.43207,31.62811],[46.44861,31.66675],[46.46227,31.68106],[46.47872,31.66394],[46.50461,31.65183],[46.52532,31.6353],[46.53567,31.61105],[46.55508,31.58239],[46.57395,31.54154],[46.57822,31.50585],[46.57125,31.48646],[46.57009,31.45374],[46.56586,31.43975],[46.55958,31.42844],[46.55818,31.40747],[46.55857,31.3878],[46.55052,31.35916],[46.55179,31.34342],[46.5446,31.31688],[46.53693,31.31659],[46.51062,31.32224],[46.49134,31.32253],[46.48365,31.33097],[46.47312,31.33473],[46.47029,31.33935],[46.45586,31.34511],[46.4305,31.34945],[46.42367,31.35858],[46.42243,31.36954],[46.40758,31.37581],[46.39058,31.38798],[46.39317,31.39861],[46.39542,31.40878],[46.34761,31.45165],[46.33772,31.4595],[46.33633,31.46634],[46.32755,31.46955],[46.31264,31.46805],[46.29824,31.44884],[46.28854,31.45089],[46.27807,31.45679],[46.26635,31.45893],[46.24927,31.46801],[46.23844,31.4642],[46.23397,31.45911],[46.21711,31.46069],[46.22312,31.47537],[46.23084,31.48305],[46.23524,31.49979],[46.23408,31.51626],[46.22488,31.52696],[46.21528,31.53003]]]}},{"type":"Feature","properties":{"kind":"district","name":"الفجر","areaKm2":627},"geometry":{"type":"Polygon","coordinates":[[[46.07245,31.99312],[46.07292,31.97546],[46.06884,31.95088],[46.07599,31.92479],[46.07491,31.91519],[46.07783,31.9014],[46.06895,31.89623],[46.04573,31.89532],[46.03548,31.89647],[46.01522,31.8828],[46.00758,31.86496],[45.98932,31.84705],[45.98492,31.84058],[45.97426,31.83467],[45.96153,31.82227],[45.95213,31.82479],[45.939,31.83644],[45.93148,31.83265],[45.93942,31.8036],[45.9383,31.7923],[45.92646,31.78486],[45.90779,31.7761],[45.88058,31.77563],[45.87255,31.78859],[45.85485,31.78254],[45.77938,31.78393],[45.75738,31.84112],[45.72762,31.89388],[45.70562,31.92464],[45.7087,31.97438],[45.76823,31.98865],[45.86936,31.99014],[45.97401,32.00039],[45.98049,32.00356],[46.00222,32.00316],[46.07245,31.99312]]]}},{"type":"Feature","properties":{"kind":"district","name":"سيد دخيل","areaKm2":604},"geometry":{"type":"Polygon","coordinates":[[[46.33769,31.2207],[46.33765,31.24327],[46.33496,31.24816],[46.33833,31.2734],[46.34786,31.31114],[46.36001,31.32078],[46.37076,31.33939],[46.38073,31.35218],[46.39058,31.38798],[46.40758,31.37581],[46.42243,31.36954],[46.42367,31.35858],[46.4305,31.34945],[46.45586,31.34511],[46.47029,31.33935],[46.47312,31.33473],[46.48365,31.33097],[46.49134,31.32253],[46.51062,31.32224],[46.53693,31.31659],[46.5446,31.31688],[46.53924,31.29378],[46.52772,31.27507],[46.51775,31.24868],[46.50255,31.22374],[46.49585,31.20237],[46.50107,31.19813],[46.49927,31.18754],[46.50498,31.18124],[46.50883,31.16604],[46.50513,31.15563],[46.51304,31.14472],[46.54654,31.06725],[46.55808,31.06079],[46.56662,31.06273],[46.57213,31.05498],[46.62436,31.02852],[46.61346,31.0225],[46.58172,31.02272],[46.56685,31.02501],[46.53168,31.02783],[46.50677,31.03211],[46.50119,31.03621],[46.48782,31.05221],[46.47587,31.05572],[46.4581,31.05121],[46.43984,31.03912],[46.41487,31.03647],[46.38474,31.04631],[46.36697,31.05013],[46.3677,31.05982],[46.36466,31.07495],[46.35614,31.08546],[46.34528,31.08895],[46.33232,31.08987],[46.3199,31.11162],[46.31936,31.11961],[46.32805,31.14408],[46.32661,31.17103],[46.33533,31.19101],[46.33769,31.2207]]]}},{"type":"Feature","properties":{"kind":"district","name":"الجبايش","areaKm2":2025},"geometry":{"type":"Polygon","coordinates":[[[46.75652,31.01746],[46.77257,30.97905],[46.77343,30.97446],[46.76736,30.94305],[46.75875,30.91714],[46.74305,30.8826],[46.73914,30.87193],[46.70869,30.81547],[46.66576,30.75279],[46.66593,30.7449],[46.68906,30.72293],[46.70078,30.70921],[46.70786,30.68517],[46.73275,30.65462],[46.76086,30.63638],[46.81939,30.60721],[46.83576,30.59647],[46.95521,30.62928],[46.99922,30.62705],[47.06134,30.60255],[47.10534,30.58695],[47.10793,30.61591],[47.08981,30.66045],[47.0924,30.725],[47.11569,30.78728],[47.12605,30.87397],[47.13381,30.9983],[47.13899,31.14019],[47.04817,31.14367],[46.93687,31.12595],[46.85922,31.12373],[46.85046,31.12507],[46.85439,31.11564],[46.85216,31.10633],[46.8431,31.09112],[46.83368,31.07945],[46.81439,31.04417],[46.80066,31.03029],[46.77102,31.01885],[46.75652,31.01746]]]}},{"type":"Feature","properties":{"kind":"district","name":"الفهود","areaKm2":618},"geometry":{"type":"Polygon","coordinates":[[[46.51972,30.5319],[46.59025,30.529],[46.83576,30.59647],[46.81939,30.60721],[46.76086,30.63638],[46.73275,30.65462],[46.70786,30.68517],[46.70078,30.70921],[46.68906,30.72293],[46.66593,30.7449],[46.66576,30.75279],[46.70869,30.81547],[46.73914,30.87193],[46.74305,30.8826],[46.75875,30.91714],[46.76736,30.94305],[46.77343,30.97446],[46.77257,30.97905],[46.75652,31.01746],[46.72385,31.0181],[46.71047,31.02259],[46.6977,31.02235],[46.66639,31.0252],[46.67191,30.99061],[46.67887,30.97742],[46.6944,30.93911],[46.69668,30.92934],[46.69243,30.92128],[46.66902,30.85977],[46.65168,30.84139],[46.61577,30.78543],[46.596,30.76148],[46.58598,30.72814],[46.54944,30.63627],[46.51972,30.5319]]]}},{"type":"Feature","properties":{"kind":"district","name":"الإصلاح","areaKm2":1047},"geometry":{"type":"Polygon","coordinates":[[[46.5446,31.31688],[46.55179,31.34342],[46.55052,31.35916],[46.55857,31.3878],[46.55818,31.40747],[46.55958,31.42844],[46.56586,31.43975],[46.57009,31.45374],[46.57125,31.48646],[46.57822,31.50585],[46.57395,31.54154],[46.55508,31.58239],[46.59909,31.56365],[46.61591,31.54711],[46.62756,31.5096],[46.61591,31.48422],[46.60944,31.45221],[46.60814,31.42129],[46.61591,31.40251],[46.63791,31.38262],[46.69356,31.355],[46.73756,31.33952],[46.76345,31.32294],[46.77121,31.29088],[46.76215,31.23777],[46.77121,31.19904],[46.80098,31.18686],[46.8178,31.18132],[46.83722,31.13813],[46.85046,31.12507],[46.85439,31.11564],[46.85216,31.10633],[46.8431,31.09112],[46.83368,31.07945],[46.81439,31.04417],[46.80066,31.03029],[46.77102,31.01885],[46.75652,31.01746],[46.72385,31.0181],[46.71047,31.02259],[46.6977,31.02235],[46.66639,31.0252],[46.64481,31.02328],[46.62916,31.02934],[46.62436,31.02852],[46.57213,31.05498],[46.56662,31.06273],[46.55808,31.06079],[46.54654,31.06725],[46.51304,31.14472],[46.50513,31.15563],[46.50883,31.16604],[46.50498,31.18124],[46.49927,31.18754],[46.50107,31.19813],[46.49585,31.20237],[46.50255,31.22374],[46.51775,31.24868],[46.52772,31.27507],[46.53924,31.29378],[46.5446,31.31688]]]}},{"type":"Feature","properties":{"kind":"district","name":"النصر","areaKm2":1023,"formerParent":"الرفاعي"},"geometry":{"type":"Polygon","coordinates":[[[45.77022,31.35992],[45.87143,31.36254],[45.89911,31.42525],[45.92836,31.42285],[45.93823,31.42824],[45.95908,31.40018],[45.94507,31.39103],[45.9276,31.35063],[46.00338,31.34843],[46.07011,31.35351],[46.06786,31.36319],[46.06084,31.37773],[46.06063,31.38647],[46.06563,31.39997],[46.08526,31.41636],[46.08861,31.42185],[46.09062,31.44062],[46.08114,31.4501],[46.08279,31.46118],[46.09384,31.47754],[46.10221,31.47926],[46.1006,31.48605],[46.09213,31.49198],[46.09112,31.49714],[46.09592,31.50592],[46.10556,31.50914],[46.11343,31.50546],[46.11624,31.49646],[46.12504,31.49975],[46.13785,31.49769],[46.14251,31.49022],[46.15884,31.49553],[46.15985,31.50643],[46.16545,31.50852],[46.16905,31.50199],[46.17836,31.49717],[46.18622,31.50113],[46.1824,31.52875],[46.18628,31.53021],[46.21528,31.53003],[46.21831,31.53158],[46.24805,31.53439],[46.24478,31.5552],[46.23257,31.56527],[46.22702,31.5782],[46.23197,31.60664],[46.22572,31.61825],[46.21343,31.6216],[46.19915,31.63183],[46.18957,31.63628],[46.12853,31.64888],[46.11771,31.64922],[46.11356,31.63856],[46.10476,31.64133],[46.0923,31.65066],[46.08472,31.6535],[46.06491,31.65592],[46.04171,31.64987],[46.01706,31.64078],[45.99849,31.62221],[45.98877,31.61706],[45.96261,31.61394],[45.80153,31.60835],[45.80302,31.58714],[45.77754,31.56599],[45.78852,31.48799],[45.76473,31.41929],[45.73362,31.39117],[45.72813,31.35523],[45.77022,31.35992]]]}},{"type":"Feature","properties":{"kind":"district","name":"البطحاء","areaKm2":2189,"formerParent":"الناصرية"},"geometry":{"type":"Polygon","coordinates":[[[46.09322,30.80174],[46.09549,30.89718],[46.0689,30.90384],[46.06075,30.91373],[46.04472,30.92019],[46.02159,30.93528],[46.05077,30.96171],[46.0695,30.98154],[46.10371,31.04629],[46.11575,31.05811],[46.09405,31.07528],[46.10339,31.08552],[46.11493,31.09423],[46.1389,31.10452],[46.14514,31.10534],[46.16486,31.10137],[46.17385,31.1022],[46.17881,31.10867],[46.17726,31.13459],[46.16493,31.1645],[46.17119,31.17695],[46.18589,31.19147],[46.18857,31.2001],[46.18475,31.21255],[46.15679,31.22266],[46.13859,31.21513],[46.13859,31.22735],[46.05289,31.26221],[46.00916,31.28398],[45.9276,31.35063],[45.94507,31.39103],[45.95908,31.40018],[45.93823,31.42824],[45.92836,31.42285],[45.89911,31.42525],[45.87143,31.36254],[45.77022,31.35992],[45.76656,31.32865],[45.73179,31.27861],[45.74826,31.25514],[45.76839,31.20506],[45.77022,31.14086],[45.73545,31.10639],[45.69701,31.07034],[45.70616,31.02329],[45.65675,31.01231],[45.62941,30.99124],[45.63307,30.86878],[45.65137,30.85464],[45.79047,30.82321],[45.93872,30.82163],[46.05586,30.80277],[46.09322,30.80174]]]}},{"type":"Feature","properties":{"kind":"district","name":"كرمة بني سعد","areaKm2":300,"formerParent":"سوق الشيوخ"},"geometry":{"type":"Polygon","coordinates":[[[46.51155,30.53217],[46.51972,30.5319],[46.54944,30.63627],[46.58598,30.72814],[46.596,30.76148],[46.61577,30.78543],[46.65168,30.84139],[46.63164,30.85648],[46.60652,30.8986],[46.60006,30.90701],[46.59909,30.91635],[46.58668,30.91637],[46.56383,30.92513],[46.53946,30.91869],[46.53156,30.91411],[46.51856,30.91221],[46.51145,30.90617],[46.48641,30.90321],[46.4875,30.88651],[46.49104,30.88088],[46.48849,30.84748],[46.48591,30.83575],[46.50754,30.81512],[46.51846,30.7707],[46.51623,30.70557],[46.51807,30.68605],[46.51773,30.66524],[46.51155,30.53217]]]}}]}